BEIDOU-2 IGSO-1 (C06)   
1 36828U 10036A   23224.78914701 -.00000144  00000+0  00000+0 0  9995
2 36828  54.2379 172.3754 0036857 190.3930 350.7679  1.00260219 47809
BEIDOU-2 G4 (C04)       
1 37210U 10057A   23224.79951963 -.00000121  00000+0  00000+0 0  9991
2 37210   1.1275  59.7833 0005077 147.3932 201.5388  1.00272726 46862
BEIDOU-2 IGSO-2 (C07)   
1 37256U 10068A   23224.16369330 -.00000172  00000+0  00000+0 0  9991
2 37256  49.4486 284.5855 0032384 210.4730 351.1188  1.00291902 46353
BEIDOU-2 IGSO-3 (C08)   
1 37384U 11013A   23224.36870131 -.00000160  00000+0  00000+0 0  9999
2 37384  60.9054  50.1154 0027237 173.4229 337.0818  1.00288044 45248
BEIDOU-2 IGSO-4 (C09)   
1 37763U 11038A   23224.22680550 -.00000103  00000+0  00000+0 0  9993
2 37763  54.5121 174.9192 0112229 228.4622  94.0176  1.00279034 44216
BEIDOU-2 IGSO-5 (C10)   
1 37948U 11073A   23224.12073847 -.00000128  00000+0  00000+0 0  9998
2 37948  49.5736 284.2530 0094825 219.7478 315.7336  1.00278496 42974
BEIDOU-2 G5 (C05)       
1 38091U 12008A   23224.77938455  .00000047  00000+0  00000+0 0  9992
2 38091   1.6569  68.0509 0001550 187.8827  44.3465  1.00276631 42053
BEIDOU-2 M3 (C11)       
1 38250U 12018A   23223.57226964 -.00000123  00000+0  00000+0 0  9998
2 38250  56.5247 339.6626 0022389 254.9973 104.7620  1.86231223 76907
BEIDOU-2 M4 (C12)       
1 38251U 12018B   23224.57771444 -.00000120  00000+0  00000+0 0  9995
2 38251  56.4352 338.9242 0013312 254.4628 105.3989  1.86231970 76924
BEIDOU-2 M6 (C14)       
1 38775U 12050B   23224.82472094 -.00000045  00000+0  00000+0 0  9995
2 38775  55.6734  97.5224 0012460 338.1116  21.9103  1.86231364 74301
BEIDOU-2 G6 (C02)       
1 38953U 12059A   23225.07111528 -.00000185  00000+0  00000+0 0  9997
2 38953   1.7696  82.0321 0008208 315.3637  33.4937  1.00273632 39624
BEIDOU-3S IGSO-1S (C31) 
1 40549U 15019A   23223.71138598 -.00000178  00000+0  00000+0 0  9997
2 40549  51.1414 307.8496 0040743 194.5248 168.8245  1.00261578 30656
BEIDOU-3S M2S (C57)     
1 40748U 15037A   23224.24373307 -.00000121  00000+0  00000+0 0  9994
2 40748  55.6763 337.5491 0010299 238.6399 121.2693  1.86233288 54756
BEIDOU-3S M1S (C58)     
1 40749U 15037B   23224.51380087 -.00000120  00000+0  00000+0 0  9997
2 40749  55.6792 337.5261 0002453 318.4560  41.5355  1.86233034 54752
BEIDOU-3S IGSO-2S (C56) 
1 40938U 15053A   23224.10307762 -.00000087  00000+0  00000+0 0  9991
2 40938  50.8429 271.0142 0048128 193.5383 347.9082  1.00288838 28917
BEIDOU-2 IGSO-6 (C13)   
1 41434U 16021A   23223.34807806 -.00000144  00000+0  00000+0 0  9992
2 41434  58.7170  48.5070 0046317 217.9680 273.9974  1.00288018 27046
BEIDOU-2 G7 (C03)       
1 41586U 16037A   23224.78967000 -.00000363  00000+0  00000+0 0  9992
2 41586   1.8178  68.1353 0007196 349.0780 298.5779  1.00270187 26361
BEIDOU-3 M1 (C19)       
1 43001U 17069A   23224.05413607 -.00000054  00000+0  00000+0 0  9998
2 43001  55.8244  97.6037 0008706 304.0089  55.9795  1.86231774 39231
BEIDOU-3 M2 (C20)       
1 43002U 17069B   23222.91689529 -.00000063  00000+0  00000+0 0  9990
2 43002  55.8229  97.6782 0007232 331.7710  28.2561  1.86231234 39205
BEIDOU-3 M7 (C27)       
1 43107U 18003A   23224.27867084 -.00000122  00000+0  00000+0 0  9996
2 43107  55.1323 338.2744 0004094  78.3228 281.7323  1.86232600 37996
BEIDOU-3 M8 (C28)       
1 43108U 18003B   23222.60571857 -.00000124  00000+0  00000+0 0  9994
2 43108  55.1263 338.3189 0003366 239.6019 120.3734  1.86230989 37964
BEIDOU-3 M4 (C22)       
1 43207U 18018A   23224.12214247 -.00000053  00000+0  00000+0 0  9997
2 43207  55.7832  97.7012 0005584   5.2137 354.8634  1.86231705 37370
BEIDOU-3 M3 (C21)       
1 43208U 18018B   23223.11487289 -.00000062  00000+0  00000+0 0  9994
2 43208  55.7821  97.7393 0006819 319.7169  40.2994  1.86231509 37356
BEIDOU-3 M9 (C29)       
1 43245U 18029A   23223.87474975 -.00000121  00000+0  00000+0 0  9994
2 43245  55.0274 336.0241 0001096 190.3996 169.6094  1.86232842 36522
BEIDOU-3 M10 (C30)      
1 43246U 18029B   23224.34176802 -.00000120  00000+0  00000+0 0  9995
2 43246  55.0246 336.0371 0002831   8.3553 351.6611  1.86233062 36524
BEIDOU-2 IGSO-7 (C16)   
1 43539U 18057A   23223.78635076 -.00000140  00000+0  00000+0 0  9993
2 43539  55.1226 172.0650 0064943 231.8494 311.3179  1.00291007 18728
BEIDOU-3 M5 (C23)       
1 43581U 18062A   23224.56218066  .00000060  00000+0  00000+0 0  9999
2 43581  54.1822 217.6887 0005735 275.2420  84.6974  1.86232017 34270
BEIDOU-3 M6 (C24)       
1 43582U 18062B   23224.96478070  .00000055  00000+0  00000+0 0  9991
2 43582  54.1819 217.6646 0004678 347.4629  12.5286  1.86229788 34286
BEIDOU-3 M12 (C26)      
1 43602U 18067A   23223.82740194  .00000067  00000+0  00000+0 0  9995
2 43602  54.2692 216.3566 0006713   9.6013 350.4165  1.86231639 33740
BEIDOU-3 M11 (C25)      
1 43603U 18067B   23225.03511010  .00000052  00000+0  00000+0 0  9998
2 43603  54.2662 216.2813 0003933 351.4251   8.5684  1.86231574 33795
BEIDOU-3 M13 (C32)      
1 43622U 18072A   23223.91989738 -.00000055  00000+0  00000+0 0  9990
2 43622  55.7526  97.2493 0005357 302.2726  57.7461  1.86231773 33289
BEIDOU-3 M14 (C33)      
1 43623U 18072B   23224.32230898 -.00000051  00000+0  00000+0 0  9999
2 43623  55.7546  97.2284 0003895 340.9212  19.1369  1.86231777 33298
BEIDOU-3 M16 (C35)      
1 43647U 18078A   23223.94714655 -.00000121  00000+0  00000+0 0  9994
2 43647  54.9237 336.1462 0006167  14.6408 345.3881  1.86227392 32797
BEIDOU-3 M15 (C34)      
1 43648U 18078B   23224.07838924 -.00000121  00000+0  00000+0 0  9996
2 43648  54.9192 336.1458 0003225  32.4618 327.5693  1.86232427 32817
BEIDOU-3 G1 (C59)       
1 43683U 18085A   23224.79551005 -.00000287  00000+0  00000+0 0  9997
2 43683   1.4666 125.9584 0003153 341.3990 279.9820  1.00276423 17633
BEIDOU-3 M17 (C36)      
1 43706U 18093A   23224.22664774  .00000064  00000+0  00000+0 0  9990
2 43706  54.2648 217.6157 0010785 277.4342  82.4492  1.86232101 32154
BEIDOU-3 M18 (C37)      
1 43707U 18093B   23224.09233543  .00000066  00000+0  00000+0 0  9994
2 43707  54.2656 217.6119 0008770 300.5241  59.3957  1.86229903 32165
BEIDOU-3 IGSO-1 (C38)   
1 44204U 19023A   23224.36132889 -.00000198  00000+0  00000+0 0  9999
2 44204  57.1847  48.4824 0022852 193.9447 327.1071  1.00289848 15933
BEIDOU-2 G8 (C01)       
1 44231U 19027A   23224.79646885 -.00000257  00000+0  00000+0 0  9992
2 44231   1.8993  81.2216 0006130 127.9224 183.0307  1.00269180 15659
BEIDOU-3 IGSO-2 (C39)   
1 44337U 19035A   23224.74979687 -.00000159  00000+0  00000+0 0  9993
2 44337  55.1547 167.9909 0033152 198.2503 344.0181  1.00281909 15279
BEIDOU-3 M24 (C46)      
1 44542U 19061A   23223.62729018  .00000072  00000+0  00000+0 0  9990
2 44542  54.4920 217.8615 0008247 334.4320  25.5356  1.86231453 26417
BEIDOU-3 M23 (C45)      
1 44543U 19061B   23224.29699206  .00000064  00000+0  00000+0 0  9991
2 44543  54.4904 217.8079 0005936 315.5044  45.3298  1.86231864 26421
BEIDOU-3 IGSO-3 (C40)   
1 44709U 19073A   23223.59253607 -.00000175  00000+0  00000+0 0  9995
2 44709  56.5728 292.0033 0035016 188.7037 171.3333  1.00289450 14002
BEIDOU-3 M22 (C44)      
1 44793U 19078A   23221.32471251 -.00000121  00000+0  00000+0 0  9990
2 44793  54.7739 336.2069 0005193  24.8269 335.2092  1.86232262 25230
BEIDOU-3 M21 (C43)      
1 44794U 19078B   23223.60313616 -.00000122  00000+0  00000+0 0  9995
2 44794  54.7461 336.1108 0003119  23.5127 336.5124  1.86232796 25277
BEIDOU-3 M19 (C41)      
1 44864U 19090A   23223.56134868 -.00000059  00000+0  00000+0 0  9991
2 44864  55.6867  97.4489 0016053 277.8972 247.9612  1.86231964 24842
BEIDOU-3 M20 (C42)      
1 44865U 19090B   23224.41133657 -.00000050  00000+0  00000+0 0  9993
2 44865  55.6892  97.4532 0014074 292.8257 172.6985  1.86231938 24842
BEIDOU-3 G2 (C60)       
1 45344U 20017A   23225.07024363 -.00000149  00000+0  00000+0 0  9992
2 45344   2.0350  15.0399 0003076 141.9786 269.5577  1.00272757 12859
BEIDOU-3 G3 (C61)       
1 45807U 20040A   23225.07634517 -.00000361  00000+0  00000+0 0  9996
2 45807   0.6361 339.2742 0005016 353.3824 126.6377  1.00273625 11664
BEIDOU-3 G4             
1 56564U 23066A   23224.79951963 -.00000118  00000+0  00000+0 0  9994
2 56564   2.8998 288.8950 0006959 206.6568 273.1103  1.00270288   988
